[{"OBJECT_NAME":"SENTINEL-2B","OBJECT_ID":"2017-013A","EPOCH":"2026-03-09T23:26:28.535424","MEAN_MOTION":14.30819717,"ECCENTRICITY":0.00011315,"INCLINATION":98.565,"RA_OF_ASC_NODE":145.1663,"ARG_OF_PERICENTER":94.2934,"MEAN_ANOMALY":265.8378,"EPHEMERIS_TYPE":0,"CLASSIFICATION_TYPE":"U","NORAD_CAT_ID":42063,"ELEMENT_SET_NO":999,"REV_AT_EPOCH":47045,"BSTAR":3.8552046e-5,"MEAN_MOTION_DOT":5.7e-7,"MEAN_MOTION_DDOT":0},{"OBJECT_NAME":"NOAA 16 DEB","OBJECT_ID":"2000-055JB","EPOCH":"2026-03-07T08:59:30.405408","MEAN_MOTION":14.27390372,"ECCENTRICITY":0.00147984,"INCLINATION":98.625,"RA_OF_ASC_NODE":126.3891,"ARG_OF_PERICENTER":259.7833,"MEAN_ANOMALY":100.1679,"EPHEMERIS_TYPE":0,"CLASSIFICATION_TYPE":"U","NORAD_CAT_ID":41358,"ELEMENT_SET_NO":999,"REV_AT_EPOCH":52166,"BSTAR":0.0016910795,"MEAN_MOTION_DOT":4.108e-5,"MEAN_MOTION_DDOT":0}]
